[{"OBJECT_NAME":"ONEWEB-0034","OBJECT_ID":"2020-020AG","EPOCH":"2026-03-02T22:05:23.224416","MEAN_MOTION":13.11416254,"ECCENTRICITY":0.0001839,"INCLINATION":87.8856,"RA_OF_ASC_NODE":42.1866,"ARG_OF_PERICENTER":84.1909,"MEAN_ANOMALY":275.9428,"EPHEMERIS_TYPE":0,"CLASSIFICATION_TYPE":"U","NORAD_CAT_ID":45454,"ELEMENT_SET_NO":999,"REV_AT_EPOCH":28866,"BSTAR":0.0011155,"MEAN_MOTION_DOT":4.08e-6,"MEAN_MOTION_DDOT":0},{"OBJECT_NAME":"ONEWEB-0060","OBJECT_ID":"2020-020AH","EPOCH":"2026-03-02T23:13:43.406400","MEAN_MOTION":13.11416286,"ECCENTRICITY":0.0001059,"INCLINATION":87.8845,"RA_OF_ASC_NODE":42.1881,"ARG_OF_PERICENTER":114.1009,"MEAN_ANOMALY":246.023,"EPHEMERIS_TYPE":0,"CLASSIFICATION_TYPE":"U","NORAD_CAT_ID":45455,"ELEMENT_SET_NO":999,"REV_AT_EPOCH":28862,"BSTAR":-0.0018184,"MEAN_MOTION_DOT":-6.32e-6,"MEAN_MOTION_DDOT":0},{"OBJECT_NAME":"ONEWEB-0086","OBJECT_ID":"2020-020AJ","EPOCH":"2026-03-03T00:33:05.218848","MEAN_MOTION":13.11413295,"ECCENTRICITY":0.000181,"INCLINATION":87.8857,"RA_OF_ASC_NODE":42.1644,"ARG_OF_PERICENTER":109.421,"MEAN_ANOMALY":250.7114,"EPHEMERIS_TYPE":0,"CLASSIFICATION_TYPE":"U","NORAD_CAT_ID":45456,"ELEMENT_SET_NO":999,"REV_AT_EPOCH":28869,"BSTAR":0.00039103,"MEAN_MOTION_DOT":1.51e-6,"MEAN_MOTION_DDOT":0},{"OBJECT_NAME":"ONEWEB-0088","OBJECT_ID":"2020-020AK","EPOCH":"2026-03-02T22:11:29.645952","MEAN_MOTION":13.11416587,"ECCENTRICITY":0.0001726,"INCLINATION":87.8867,"RA_OF_ASC_NODE":42.1481,"ARG_OF_PERICENTER":75.8314,"MEAN_ANOMALY":284.3006,"EPHEMERIS_TYPE":0,"CLASSIFICATION_TYPE":"U","NORAD_CAT_ID":45457,"ELEMENT_SET_NO":999,"REV_AT_EPOCH":28861,"BSTAR":0.0014037,"MEAN_MOTION_DOT":5.1e-6,"MEAN_MOTION_DDOT":0},{"OBJECT_NAME":"ONEWEB-0102","OBJECT_ID":"2020-100A","EPOCH":"2026-03-02T22:27:15.693120","MEAN_MOTION":13.12440816,"ECCENTRICITY":0.0001798,"INCLINATION":87.8988,"RA_OF_ASC_NODE":11.7693,"ARG_OF_PERICENTER":87.9325,"MEAN_ANOMALY":272.2009,"EPHEMERIS_TYPE":0,"CLASSIFICATION_TYPE":"U","NORAD_CAT_ID":47258,"ELEMENT_SET_NO":999,"REV_AT_EPOCH":25079,"BSTAR":0.00038798,"MEAN_MOTION_DOT":1.52e-6,"MEAN_MOTION_DDOT":0},{"OBJECT_NAME":"ONEWEB-0109","OBJECT_ID":"2020-100B","EPOCH":"2026-03-02T20:49:40.074816","MEAN_MOTION":13.12440039,"ECCENTRICITY":0.000195,"INCLINATION":87.8995,"RA_OF_ASC_NODE":11.7564,"ARG_OF_PERICENTER":82.5867,"MEAN_ANOMALY":277.5483,"EPHEMERIS_TYPE":0,"CLASSIFICATION_TYPE":"U","NORAD_CAT_ID":47259,"ELEMENT_SET_NO":999,"REV_AT_EPOCH":25061,"BSTAR":-0.00035246,"MEAN_MOTION_DOT":-1.14e-6,"MEAN_MOTION_DDOT":0},{"OBJECT_NAME":"ONEWEB-0110","OBJECT_ID":"2020-100C","EPOCH":"2026-03-02T21:28:41.955456","MEAN_MOTION":13.12444701,"ECCENTRICITY":0.0001698,"INCLINATION":87.8996,"RA_OF_ASC_NODE":11.7355,"ARG_OF_PERICENTER":88.876,"MEAN_ANOMALY":271.2563,"EPHEMERIS_TYPE":0,"CLASSIFICATION_TYPE":"U","NORAD_CAT_ID":47260,"ELEMENT_SET_NO":999,"REV_AT_EPOCH":25078,"BSTAR":-0.00082571,"MEAN_MOTION_DOT":-2.84e-6,"MEAN_MOTION_DDOT":0},{"OBJECT_NAME":"ONEWEB-0111","OBJECT_ID":"2020-100D","EPOCH":"2026-03-02T20:22:50.608704","MEAN_MOTION":13.12441831,"ECCENTRICITY":0.0001706,"INCLINATION":87.8996,"RA_OF_ASC_NODE":11.7633,"ARG_OF_PERICENTER":81.275,"MEAN_ANOMALY":278.8571,"EPHEMERIS_TYPE":0,"CLASSIFICATION_TYPE":"U","NORAD_CAT_ID":47261,"ELEMENT_SET_NO":999,"REV_AT_EPOCH":25061,"BSTAR":0.0011918,"MEAN_MOTION_DOT":4.41e-6,"MEAN_MOTION_DDOT":0},{"OBJECT_NAME":"ONEWEB-0114","OBJECT_ID":"2020-100E","EPOCH":"2026-03-02T21:06:44.390016","MEAN_MOTION":13.12441264,"ECCENTRICITY":0.0002091,"INCLINATION":87.8999,"RA_OF_ASC_NODE":11.7521,"ARG_OF_PERICENTER":78.0796,"MEAN_ANOMALY":282.0567,"EPHEMERIS_TYPE":0,"CLASSIFICATION_TYPE":"U","NORAD_CAT_ID":47262,"ELEMENT_SET_NO":999,"REV_AT_EPOCH":25057,"BSTAR":-0.0010927,"MEAN_MOTION_DOT":-3.8e-6,"MEAN_MOTION_DDOT":0},{"OBJECT_NAME":"ONEWEB-0117","OBJECT_ID":"2020-100F","EPOCH":"2026-03-02T20:54:32.379840","MEAN_MOTION":13.12440812,"ECCENTRICITY":0.0001828,"INCLINATION":87.8995,"RA_OF_ASC_NODE":11.7487,"ARG_OF_PERICENTER":81.7624,"MEAN_ANOMALY":278.3711,"EPHEMERIS_TYPE":0,"CLASSIFICATION_TYPE":"U","NORAD_CAT_ID":47263,"ELEMENT_SET_NO":999,"REV_AT_EPOCH":25058,"BSTAR":-0.0006199,"MEAN_MOTION_DOT":-2.1e-6,"MEAN_MOTION_DDOT":0},{"OBJECT_NAME":"ONEWEB-0118","OBJECT_ID":"2020-100G","EPOCH":"2026-03-02T21:43:20.366976","MEAN_MOTION":13.12442856,"ECCENTRICITY":0.0002024,"INCLINATION":87.8993,"RA_OF_ASC_NODE":11.7444,"ARG_OF_PERICENTER":72.0049,"MEAN_ANOMALY":288.13,"EPHEMERIS_TYPE":0,"CLASSIFICATION_TYPE":"U","NORAD_CAT_ID":47264,"ELEMENT_SET_NO":999,"REV_AT_EPOCH":25078,"BSTAR":-7.6385e-5,"MEAN_MOTION_DOT":-1.5e-7,"MEAN_MOTION_DDOT":0},{"OBJECT_NAME":"ONEWEB-0119","OBJECT_ID":"2020-100H","EPOCH":"2026-03-02T22:19:56.737920","MEAN_MOTION":13.12440959,"ECCENTRICITY":0.0001861,"INCLINATION":87.899,"RA_OF_ASC_NODE":11.7657,"ARG_OF_PERICENTER":80.8664,"MEAN_ANOMALY":279.2675,"EPHEMERIS_TYPE":0,"CLASSIFICATION_TYPE":"U","NORAD_CAT_ID":47265,"ELEMENT_SET_NO":999,"REV_AT_EPOCH":25076,"BSTAR":0.00093567,"MEAN_MOTION_DOT":3.49e-6,"MEAN_MOTION_DDOT":0},{"OBJECT_NAME":"ONEWEB-0120","OBJECT_ID":"2020-100J","EPOCH":"2026-03-02T21:04:29.642304","MEAN_MOTION":13.12440989,"ECCENTRICITY":0.0001949,"INCLINATION":87.8987,"RA_OF_ASC_NODE":11.7765,"ARG_OF_PERICENTER":80.1266,"MEAN_ANOMALY":280.0082,"EPHEMERIS_TYPE":0,"CLASSIFICATION_TYPE":"U","NORAD_CAT_ID":47266,"ELEMENT_SET_NO":999,"REV_AT_EPOCH":25078,"BSTAR":-0.0012072,"MEAN_MOTION_DOT":-4.22e-6,"MEAN_MOTION_DDOT":0},{"OBJECT_NAME":"ONEWEB-0121","OBJECT_ID":"2020-100K","EPOCH":"2026-03-02T20:47:13.535232","MEAN_MOTION":13.12440545,"ECCENTRICITY":0.0001673,"INCLINATION":87.8996,"RA_OF_ASC_NODE":11.7549,"ARG_OF_PERICENTER":85.4793,"MEAN_ANOMALY":274.6527,"EPHEMERIS_TYPE":0,"CLASSIFICATION_TYPE":"U","NORAD_CAT_ID":47267,"ELEMENT_SET_NO":999,"REV_AT_EPOCH":25069,"BSTAR":-0.00017027,"MEAN_MOTION_DOT":-4.9e-7,"MEAN_MOTION_DDOT":0},{"OBJECT_NAME":"ONEWEB-0122","OBJECT_ID":"2020-100L","EPOCH":"2026-03-02T20:38:42.316800","MEAN_MOTION":13.12443987,"ECCENTRICITY":0.000192,"INCLINATION":87.8999,"RA_OF_ASC_NODE":11.758,"ARG_OF_PERICENTER":83.4918,"MEAN_ANOMALY":276.6429,"EPHEMERIS_TYPE":0,"CLASSIFICATION_TYPE":"U","NORAD_CAT_ID":47268,"ELEMENT_SET_NO":999,"REV_AT_EPOCH":25060,"BSTAR":0.00048505,"MEAN_MOTION_DOT":1.87e-6,"MEAN_MOTION_DDOT":0},{"OBJECT_NAME":"ONEWEB-0123","OBJECT_ID":"2020-100M","EPOCH":"2026-03-02T20:32:35.871072","MEAN_MOTION":13.12441324,"ECCENTRICITY":0.0001851,"INCLINATION":87.8988,"RA_OF_ASC_NODE":11.7792,"ARG_OF_PERICENTER":77.3598,"MEAN_ANOMALY":282.7737,"EPHEMERIS_TYPE":0,"CLASSIFICATION_TYPE":"U","NORAD_CAT_ID":47269,"ELEMENT_SET_NO":999,"REV_AT_EPOCH":25074,"BSTAR":0.00077494,"MEAN_MOTION_DOT":2.91e-6,"MEAN_MOTION_DDOT":0},{"OBJECT_NAME":"ONEWEB-0124","OBJECT_ID":"2020-100N","EPOCH":"2026-03-02T22:07:44.400288","MEAN_MOTION":13.12441869,"ECCENTRICITY":0.0001694,"INCLINATION":87.8985,"RA_OF_ASC_NODE":11.7707,"ARG_OF_PERICENTER":79.2083,"MEAN_ANOMALY":280.9236,"EPHEMERIS_TYPE":0,"CLASSIFICATION_TYPE":"U","NORAD_CAT_ID":47270,"ELEMENT_SET_NO":999,"REV_AT_EPOCH":25063,"BSTAR":0.0012546,"MEAN_MOTION_DOT":4.64e-6,"MEAN_MOTION_DDOT":0}]
