ONEWEB-0034             
1 45454U 20020AG  26061.92040769  .00000408  00000+0  11155-2 0  9994
2 45454  87.8856  42.1866 0001839  84.1909 275.9428 13.11416254288660
ONEWEB-0060             
1 45455U 20020AH  26061.96786350 -.00000632  00000+0 -18184-2 0  9992
2 45455  87.8845  42.1881 0001059 114.1009 246.0230 13.11416286288626
ONEWEB-0086             
1 45456U 20020AJ  26062.02297707  .00000151  00000+0  39103-3 0  9993
2 45456  87.8857  42.1644 0001810 109.4210 250.7114 13.11413295288690
ONEWEB-0088             
1 45457U 20020AK  26061.92464868  .00000510  00000+0  14037-2 0  9993
2 45457  87.8867  42.1481 0001726  75.8314 284.3006 13.11416587288610
ONEWEB-0102             
1 47258U 20100A   26061.93559830  .00000152  00000+0  38798-3 0  9991
2 47258  87.8988  11.7693 0001798  87.9325 272.2009 13.12440816250797
ONEWEB-0109             
1 47259U 20100B   26061.86782494 -.00000114  00000+0 -35246-3 0  9993
2 47259  87.8995  11.7564 0001950  82.5867 277.5483 13.12440039250617
ONEWEB-0110             
1 47260U 20100C   26061.89493004 -.00000284  00000+0 -82571-3 0  9995
2 47260  87.8996  11.7355 0001698  88.8760 271.2563 13.12444701250786
ONEWEB-0111             
1 47261U 20100D   26061.84919686  .00000441  00000+0  11918-2 0  9999
2 47261  87.8996  11.7633 0001706  81.2750 278.8571 13.12441831250617
ONEWEB-0114             
1 47262U 20100E   26061.87968044 -.00000380  00000+0 -10927-2 0  9998
2 47262  87.8999  11.7521 0002091  78.0796 282.0567 13.12441264250576
ONEWEB-0117             
1 47263U 20100F   26061.87120810 -.00000210  00000+0 -61990-3 0  9999
2 47263  87.8995  11.7487 0001828  81.7624 278.3711 13.12440812250580
ONEWEB-0118             
1 47264U 20100G   26061.90509684 -.00000015  00000+0 -76385-4 0  9992
2 47264  87.8993  11.7444 0002024  72.0049 288.1300 13.12442856250780
ONEWEB-0119             
1 47265U 20100H   26061.93051780  .00000349  00000+0  93567-3 0  9993
2 47265  87.8990  11.7657 0001861  80.8664 279.2675 13.12440959250768
ONEWEB-0120             
1 47266U 20100J   26061.87812086 -.00000422  00000+0 -12072-2 0  9996
2 47266  87.8987  11.7765 0001949  80.1266 280.0082 13.12440989250780
ONEWEB-0121             
1 47267U 20100K   26061.86612888 -.00000049  00000+0 -17027-3 0  9995
2 47267  87.8996  11.7549 0001673  85.4793 274.6527 13.12440545250699
ONEWEB-0122             
1 47268U 20100L   26061.86021200  .00000187  00000+0  48505-3 0  9994
2 47268  87.8999  11.7580 0001920  83.4918 276.6429 13.12443987250607
ONEWEB-0123             
1 47269U 20100M   26061.85597073  .00000291  00000+0  77494-3 0  9995
2 47269  87.8988  11.7792 0001851  77.3598 282.7737 13.12441324250748
ONEWEB-0124             
1 47270U 20100N   26061.92204167  .00000464  00000+0  12546-2 0  9992
2 47270  87.8985  11.7707 0001694  79.2083 280.9236 13.12441869250634
